NORAD_CAT_ID,OBJECT_NAME,OBJECT_TYPE,EPOCH,MEAN_MOTION,ECCENTRICITY,INCLINATION,RA_OF_ASC_NODE,ARG_OF_PERICENTER,MEAN_ANOMALY,BSTAR,MEAN_MOTION_DOT,MEAN_MOTION_DDOT,TLE_LINE0,TLE_LINE1,TLE_LINE2,SEMIMAJOR_AXIS,PERIOD,APOGEE,PERIGEE,DECAYED
54169.0,STARLINK-5282,PAYLOAD,2024-06-18 12:55:15,15.08837681,0.0001231,53.2193,308.0402,100.0955,260.0176,7.8297e-05,9.58e-06,0.0,0 STARLINK-5282,1 54169U 22141N   24170.53837195  .00000958  00000-0  78297-4 0  9999,2 54169  53.2193 308.0402 0001231 100.0955 260.0176 15.08837681 90888,6917.887,95.438,540.604,538.901,0.0
54169.0,STARLINK-5282,PAYLOAD,2024-06-18 14:30:38,15.08839727,0.0001386,53.2179,307.7423,100.389,259.7259,7.7849e-05,9.51e-06,0.0,0 STARLINK-5282,1 54169U 22141N   24170.60461044  .00000951  00000-0  77849-4 0  9998,2 54169  53.2179 307.7423 0001386 100.3890 259.7259 15.08839727 90894,6917.881,95.438,540.705,538.787,0.0
54169.0,STARLINK-5282,PAYLOAD,2024-06-18 16:06:01,15.08842204,0.000119,53.2184,307.4481,90.8919,269.2209,0.00015126,2.12e-05,0.0,0 STARLINK-5282,1 54169U 22141N   24170.67084776  .00002120  00000-0  15126-3 0  9997,2 54169  53.2184 307.4481 0001190  90.8919 269.2209 15.08842204 90906,6917.874,95.437,540.562,538.915,0.0
54169.0,STARLINK-5282,PAYLOAD,2024-06-19 12:46:02,15.0883305,0.0001558,53.2195,303.5826,107.8429,252.2733,5.698e-05,6.19e-06,0.0,0 STARLINK-5282,1 54169U 22141N   24171.53197836  .00000619  00000-0  56980-4 0  9990,2 54169  53.2195 303.5826 0001558 107.8429 252.2733 15.08833050 91039,6917.902,95.438,540.844,538.689,0.0
54169.0,STARLINK-5282,PAYLOAD,2024-06-19 14:21:26,15.08833736,0.0001557,53.2195,303.2854,107.6893,252.4269,6.2692e-05,7.1e-06,0.0,0 STARLINK-5282,1 54169U 22141N   24171.59821813  .00000710  00000-0  62692-4 0  9994,2 54169  53.2195 303.2854 0001557 107.6893 252.4269 15.08833736 91047,6917.9,95.438,540.842,538.687,0.0
54169.0,STARLINK-5282,PAYLOAD,2024-06-19 15:56:49,15.08835105,0.000148,53.2196,302.9896,108.116,251.9993,8.8124e-05,1.115e-05,0.0,0 STARLINK-5282,1 54169U 22141N   24171.66445734  .00001115  00000-0  88124-4 0  9994,2 54169  53.2196 302.9896 0001480 108.1160 251.9993 15.08835105 91059,6917.895,95.438,540.784,538.737,0.0
54169.0,STARLINK-5282,PAYLOAD,2024-06-20 14:12:13,15.08842582,0.0001441,53.2194,298.827,106.4373,253.6778,3.6611e-05,2.95e-06,0.0,0 STARLINK-5282,1 54169U 22141N   24172.59181716  .00000295  00000-0  36611-4 0  9996,2 54169  53.2194 298.8270 0001441 106.4373 253.6778 15.08842582 91192,6917.872,95.437,540.734,538.741,0.0
54169.0,STARLINK-5282,PAYLOAD,2024-06-20 15:47:36,15.08842313,0.0001318,53.2192,298.5297,101.7743,258.3397,7.9647e-05,9.8e-06,0.0,0 STARLINK-5282,1 54169U 22141N   24172.65805635  .00000980  00000-0  79647-4 0  9993,2 54169  53.2192 298.5297 0001318 101.7743 258.3397 15.08842313 91201,6917.873,95.437,540.65,538.827,0.0
54169.0,STARLINK-5282,PAYLOAD,2024-06-21 12:27:35,15.08885894,0.0001461,53.2183,294.662,76.9768,283.1387,-0.00081018,-0.00013175,0.0,0 STARLINK-5282,1 54169U 22141N   24173.51916262 -.00013175  00000-0 -81018-3 0  9994,2 54169  53.2183 294.6620 0001461  76.9768 283.1387 15.08885894 91337,6917.74,95.435,540.616,538.594,0.0
54169.0,STARLINK-5282,PAYLOAD,2024-06-21 14:03:01,15.08813886,0.0001321,53.2175,294.3638,92.3532,267.7612,0.00038702,5.873e-05,0.0,0 STARLINK-5282,1 54169U 22141N   24173.58543163  .00005873  00000-0  38702-3 0  9993,2 54169  53.2175 294.3638 0001321  92.3532 267.7612 15.08813886 91342,6917.96,95.439,540.739,538.911,0.0
54169.0,STARLINK-5282,PAYLOAD,2024-06-21 17:13:46,15.08839695,0.0001366,53.2189,293.7666,93.5014,266.6135,0.00010645,1.407e-05,0.0,0 STARLINK-5282,1 54169U 22141N   24173.71790143  .00001407  00000-0  10645-3 0  9995,2 54169  53.2189 293.7666 0001366  93.5014 266.6135 15.08839695 91364,6917.881,95.438,540.691,538.801,0.0
54169.0,STARLINK-5282,PAYLOAD,2024-06-22 13:53:47,15.0884451,0.0001308,53.2178,289.9033,84.4435,275.6706,9.588e-05,1.239e-05,0.0,0 STARLINK-5282,1 54169U 22141N   24174.57902070  .00001239  00000-0  95880-4 0  9992,2 54169  53.2178 289.9033 0001308  84.4435 275.6706 15.08844510 91499,6917.867,95.437,540.636,538.827,0.0
54169.0,STARLINK-5282,PAYLOAD,2024-06-22 15:29:10,15.08845918,0.0001261,53.2181,289.6066,81.0482,279.0653,0.00011367,1.522e-05,0.0,0 STARLINK-5282,1 54169U 22141N   24174.64525928  .00001522  00000-0  11367-3 0  9995,2 54169  53.2181 289.6066 0001261  81.0482 279.0653 15.08845918 91503,6917.862,95.437,540.6,538.855,0.0
54169.0,STARLINK-5282,PAYLOAD,2024-06-23 12:09:11,15.08833832,0.0001363,53.2179,285.7412,83.359,276.7558,0.0002827,4.213e-05,0.0,0 STARLINK-5282,1 54169U 22141N   24175.50638408  .00004213  00000-0  28270-3 0  9990,2 54169  53.2179 285.7412 0001363  83.3590 276.7558 15.08833832 91634,6917.899,95.438,540.707,538.821,0.0
54169.0,STARLINK-5282,PAYLOAD,2024-06-23 13:44:34,15.08846421,0.0001469,53.218,285.4441,75.9687,284.1468,9.597e-05,1.24e-05,0.0,0 STARLINK-5282,1 54169U 22141N   24175.57261923  .00001240  00000-0  95970-4 0  9990,2 54169  53.2180 285.4441 0001469  75.9687 284.1468 15.08846421 91648,6917.861,95.437,540.742,538.71,0.0
54169.0,STARLINK-5282,PAYLOAD,2024-06-24 13:35:20,15.08852777,0.000141,53.2179,280.9832,78.0172,282.0978,0.00011836,1.597e-05,0.0,0 STARLINK-5282,1 54169U 22141N   24176.56621002  .00001597  00000-0  11836-3 0  9991,2 54169  53.2179 280.9832 0001410  78.0172 282.0978 15.08852777 91799,6917.841,95.437,540.682,538.731,0.0
54169.0,STARLINK-5282,PAYLOAD,2024-06-25 11:50:45,15.08839238,0.0001305,53.2178,276.8196,97.1336,262.9804,3.7811e-06,-2.28e-06,0.0,0 STARLINK-5282,1 54169U 22141N   24177.49357917 -.00000228  00000-0  37811-5 0  9999,2 54169  53.2178 276.8196 0001305  97.1336 262.9804 15.08839238 91930,6917.883,95.438,540.651,538.845,0.0
54169.0,STARLINK-5282,PAYLOAD,2024-06-25 13:26:08,15.08839936,0.0001327,53.2179,276.5215,103.6379,256.4761,3.3222e-06,-2.35e-06,0.0,0 STARLINK-5282,1 54169U 22141N   24177.55981825 -.00000235  00000-0  33222-5 0  9997,2 54169  53.2179 276.5215 0001327 103.6379 256.4761 15.08839936 91940,6917.881,95.438,540.664,538.828,0.0
54169.0,STARLINK-5282,PAYLOAD,2024-06-26 11:41:31,15.08845413,0.0001393,53.2182,272.3614,96.8798,263.2353,3.7414e-05,3.08e-06,0.0,0 STARLINK-5282,1 54169U 22141N   24178.48717377  .00000308  00000-0  37414-4 0  9995,2 54169  53.2182 272.3614 0001393  96.8798 263.2353 15.08845413 92088,6917.864,95.437,540.693,538.765,0.0
54169.0,STARLINK-5282,PAYLOAD,2024-06-27 13:07:43,15.08810913,0.0001347,53.2174,267.5987,84.6837,275.4309,0.00038663,5.866e-05,0.0,0 STARLINK-5282,1 54169U 22141N   24179.54703008  .00005866  00000-0  38663-3 0  9999,2 54169  53.2174 267.5987 0001347  84.6837 275.4309 15.08810913 92247,6917.969,95.439,540.766,538.902,0.0
54169.0,STARLINK-5282,PAYLOAD,2024-06-28 11:23:05,15.08860076,0.0001459,53.2154,263.4341,42.9331,317.1775,0.00017758,2.541e-05,0.0,0 STARLINK-5282,1 54169U 22141N   24180.47436922  .00002541  00000-0  17758-3 0  9990,2 54169  53.2154 263.4341 0001459  42.9331 317.1775 15.08860076 92385,6917.819,95.436,540.693,538.675,0.0
54169.0,STARLINK-5282,PAYLOAD,2024-06-28 22:30:47,15.08850696,0.0001401,53.2154,261.3531,68.3735,291.7407,0.00022659,3.321e-05,0.0,0 STARLINK-5282,1 54169U 22141N   24180.93805208  .00003321  00000-0  22659-3 0  9991,2 54169  53.2154 261.3531 0001401  68.3735 291.7407 15.08850696 92454,6917.848,95.437,540.682,538.744,0.0
54169.0,STARLINK-5282,PAYLOAD,2024-06-29 04:52:21,15.08838938,0.0001959,53.215,260.1662,80.5906,279.5307,0.0001154,1.549e-05,0.0,0 STARLINK-5282,1 54169U 22141N   24181.20302222  .00001549  00000-0  11540-3 0  9997,2 54169  53.2150 260.1662 0001959  80.5906 279.5307 15.08838938 92498,6917.884,95.438,541.104,538.393,0.0
54169.0,STARLINK-5282,PAYLOAD,2024-06-29 12:49:16,15.08843757,0.0001345,53.2148,258.6763,74.3622,285.7519,0.00012847,1.757e-05,0.0,0 STARLINK-5282,1 54169U 22141N   24181.53421966  .00001757  00000-0  12847-3 0  9992,2 54169  53.2148 258.6763 0001345  74.3622 285.7519 15.08843757 92549,6917.869,95.437,540.664,538.803,0.0
54169.0,STARLINK-5282,PAYLOAD,2024-06-30 11:04:41,15.08835896,0.0001341,53.2132,254.5153,74.4495,285.6645,-0.00012442,-2.267e-05,0.0,0 STARLINK-5282,1 54169U 22141N   24182.46158639 -.00002267  00000-0 -12442-3 0  9999,2 54169  53.2132 254.5153 0001341  74.4495 285.6645 15.08835896 92684,6917.893,95.438,540.686,538.83,0.0
54169.0,STARLINK-5282,PAYLOAD,2024-06-30 14:15:27,15.08839756,0.0001477,53.2132,253.92,76.459,283.6567,-4.7707e-05,-1.047e-05,0.0,0 STARLINK-5282,1 54169U 22141N   24182.59406500 -.00001047  00000-0 -47707-4 0  9994,2 54169  53.2132 253.9200 0001477  76.4590 283.6567 15.08839756 92701,6917.881,95.438,540.768,538.724,0.0
54169.0,STARLINK-5282,PAYLOAD,2024-06-30 22:12:22,15.08840448,0.0001452,53.2136,252.4336,76.6928,283.4226,1.4086e-05,-6.4e-07,0.0,0 STARLINK-5282,1 54169U 22141N   24182.92526537 -.00000064  00000-0  14086-4 0  9995,2 54169  53.2136 252.4336 0001452  76.6928 283.4226 15.08840448 92754,6917.879,95.438,540.748,538.74,0.0
54169.0,STARLINK-5282,PAYLOAD,2024-07-01 14:06:14,15.08844472,0.0001479,53.2136,249.4589,76.7813,283.3344,0.00018276,2.622e-05,0.0,0 STARLINK-5282,1 54169U 22141N   24183.58766501  .00002622  00000-0  18276-3 0  9990,2 54169  53.2136 249.4589 0001479  76.7813 283.3344 15.08844472 92855,6917.867,95.437,540.755,538.709,0.0
54169.0,STARLINK-5282,PAYLOAD,2024-07-01 22:03:09,15.08843319,0.0001413,53.2142,247.9717,87.309,272.8064,0.0001221,1.656e-05,0.0,0 STARLINK-5282,1 54169U 22141N   24183.91886501  .00001656  00000-0  12210-3 0  9998,2 54169  53.2142 247.9717 0001413  87.3090 272.8064 15.08843319 92908,6917.87,95.437,540.713,538.758,0.0
54169.0,STARLINK-5282,PAYLOAD,2024-07-02 04:24:43,15.08829769,0.0001611,53.214,246.7828,89.892,270.2257,0.00029072,4.341e-05,0.0,0 STARLINK-5282,1 54169U 22141N   24184.18383399  .00004341  00000-0  29072-3 0  9993,2 54169  53.2140 246.7828 0001611  89.8920 270.2257 15.08829769 92948,6917.912,95.438,540.891,538.662,0.0
